{"epoch":1784799577,"count":18318,"objects":[{"id":"64565","name":"LEMUR 2 HUBBLE-4","type":"PAYLOAD","l1":"1 64565U 25135AP  26203.77800597  .00001056  00000-0  10518-3 0  9998","l2":"2 64565  97.7723 317.2747 0003234 144.7931 215.3503 14.93699280 59188"},{"id":"64586","name":"LEMUR 2 SEJONG-2","type":"PAYLOAD","l1":"1 64586U 25135BL  26203.93543332  .00005781  00000-0  50770-3 0  9993","l2":"2 64586  97.7711 318.7221 0004424 183.5535 176.5656 14.96962712 59299"},{"id":"64840","name":"LEMUR 2 HUBBLE-5","type":"PAYLOAD","l1":"1 64840U 25135BT  26203.78417040  .00001215  00000-0  11871-3 0  9992","l2":"2 64840  97.7742 317.9580 0004944 205.3244 154.7735 14.94226654 59227"},{"id":"64841","name":"LEMUR 2 KARENDARRELL","type":"PAYLOAD","l1":"1 64841U 25135BU  26203.79849381  .00007940  00000-0  63228-3 0  9995","l2":"2 64841  97.7721 319.9655 0013015  81.7245 278.5453 15.00577316 59354"},{"id":"65403","name":"LEMUR-2-LUCILLE-ROSE","type":"PAYLOAD","l1":"1 65403U 25135BV  26203.77203599  .00007551  00000-0  60148-3 0  9999","l2":"2 65403  97.7688 319.9724 0015582 166.4570 193.7074 15.00558075 53971"},{"id":"66295","name":"LEMUR 2 AFFIE-WAUWIE","type":"PAYLOAD","l1":"1 66295U 25248C   26203.62459171  .00021917  00000-0  78378-3 0  9993","l2":"2 66295  45.3913 282.7928 0009297 290.1345  69.8544 15.28478624 40012"},{"id":"66678","name":"OTTER SDM","type":"PAYLOAD","l1":"1 66678U 25276N   26203.66756174  .00006338  00000-0  29630-3 0  9993","l2":"2 66678  97.4195 276.5607 0004856 220.4782 139.6093 15.20118190 35806"},{"id":"66686","name":"LEMUR-2-STAS-GORBUK","type":"PAYLOAD","l1":"1 66686U 25276W   26203.16421229  .00004820  00000-0  22883-3 0  9994","l2":"2 66686  97.4227 276.1161 0004147 216.7749 143.3202 15.19706170 35720"},{"id":"66768","name":"LEMUR-2-TEODOR","type":"PAYLOAD","l1":"1 66768U 25276DG  26203.43838479  .00005433  00000-0  24529-3 0  9994","l2":"2 66768  97.4133 276.6672 0002083  83.4185 276.7288 15.21390266 35801"},{"id":"66776","name":"LEMUR-2-LAILA","type":"PAYLOAD","l1":"1 66776U 25276DQ  26203.20982481  .00005780  00000-0  25905-3 0  9995","l2":"2 66776  97.4156 276.5851 0002792  84.3231 275.8324 15.21615295 35771"},{"id":"66781","name":"LEMUR-2-CELIJO-SB-PK","type":"PAYLOAD","l1":"1 66781U 25276DW  26203.65468491  .00006159  00000-0  49505-3 0  9993","l2":"2 66781  97.5180 273.2602 0006576  46.3519 313.8250 15.00342762 27948"},{"id":"66782","name":"LEMUR-2-FINNIAN","type":"PAYLOAD","l1":"1 66782U 25276DX  26203.89000981  .00005754  00000-0  45883-3 0  9991","l2":"2 66782  97.5350 273.7744 0006927 329.5033  30.5787 15.00678347 25359"},{"id":"66783","name":"LEMUR-2-STARLIGHT","type":"PAYLOAD","l1":"1 66783U 25276DY  26203.14299221  .00006752  00000-0  55454-3 0  9991","l2":"2 66783  97.5239 272.5886 0014512  26.2388 333.9568 14.99416887 35436"},{"id":"66784","name":"LEMUR-2-TARTIFLETTE","type":"PAYLOAD","l1":"1 66784U 25276DZ  26203.67535497  .00006369  00000-0  52363-3 0  9998","l2":"2 66784  97.5240 273.1104 0013750  33.4465 326.7624 14.99403660 35515"},{"id":"66785","name":"LEMUR-2-VUKASIN","type":"PAYLOAD","l1":"1 66785U 25276EA  26203.90647315  .00005854  00000-0  46788-3 0  9990","l2":"2 66785  97.5197 273.7039 0001846  24.6131 335.5181 15.00598770 35500"},{"id":"66786","name":"LEMUR-2-HOTSPUR-TOM","type":"PAYLOAD","l1":"1 66786U 25276EB  26203.47004627  .00006231  00000-0  51386-3 0  9996","l2":"2 66786  97.5215 272.8837 0013506  26.0227 334.1672 14.99296959 35417"}]}