{"fetched_at":"2026-07-23T07:05:23.680Z","source":"https://celestrak.org/NORAD/elements/gp.php?GROUP=spire&FORMAT=JSON","constellation":"spire","records":[{"OBJECT_NAME":"LEMUR-2-HUBBLE-4","OBJECT_ID":"2025-135AP","EPOCH":"2026-07-22T18:40:19.715808","CLASSIFICATION_TYPE":"U","MEAN_MOTION":14.9369928,"ECCENTRICITY":0.00032338,"INCLINATION":97.7723,"RA_OF_ASC_NODE":317.2747,"ARG_OF_PERICENTER":144.7931,"MEAN_ANOMALY":215.3503,"EPHEMERIS_TYPE":0,"NORAD_CAT_ID":64565,"ELEMENT_SET_NO":999,"REV_AT_EPOCH":5918,"BSTAR":0.0001051806,"MEAN_MOTION_DOT":0.00001056,"MEAN_MOTION_DDOT":0},{"OBJECT_NAME":"LEMUR-2-SEJONG-2","OBJECT_ID":"2025-135BL","EPOCH":"2026-07-22T22:27:01.438848","CLASSIFICATION_TYPE":"U","MEAN_MOTION":14.96962712,"ECCENTRICITY":0.00044239,"INCLINATION":97.7711,"RA_OF_ASC_NODE":318.7221,"ARG_OF_PERICENTER":183.5535,"MEAN_ANOMALY":176.5656,"EPHEMERIS_TYPE":0,"NORAD_CAT_ID":64586,"ELEMENT_SET_NO":999,"REV_AT_EPOCH":5929,"BSTAR":0.00050769977,"MEAN_MOTION_DOT":0.00005781,"MEAN_MOTION_DDOT":0},{"OBJECT_NAME":"LEMUR-2-HUBBLE-5","OBJECT_ID":"2025-135BT","EPOCH":"2026-07-22T18:49:12.322560","CLASSIFICATION_TYPE":"U","MEAN_MOTION":14.94226654,"ECCENTRICITY":0.00049439,"INCLINATION":97.7742,"RA_OF_ASC_NODE":317.958,"ARG_OF_PERICENTER":205.3244,"MEAN_ANOMALY":154.7735,"EPHEMERIS_TYPE":0,"NORAD_CAT_ID":64840,"ELEMENT_SET_NO":999,"REV_AT_EPOCH":5922,"BSTAR":0.00011870734,"MEAN_MOTION_DOT":0.00001215,"MEAN_MOTION_DDOT":0},{"OBJECT_NAME":"LEMUR-2-KARENDARRELL","OBJECT_ID":"2025-135BU","EPOCH":"2026-07-22T19:09:49.865184","CLASSIFICATION_TYPE":"U","MEAN_MOTION":15.00577316,"ECCENTRICITY":0.0013015,"INCLINATION":97.7721,"RA_OF_ASC_NODE":319.9655,"ARG_OF_PERICENTER":81.7245,"MEAN_ANOMALY":278.5453,"EPHEMERIS_TYPE":0,"NORAD_CAT_ID":64841,"ELEMENT_SET_NO":999,"REV_AT_EPOCH":5935,"BSTAR":0.00063228157,"MEAN_MOTION_DOT":0.0000794,"MEAN_MOTION_DDOT":0},{"OBJECT_NAME":"LEMUR-2-LUCILLE-ROSE","OBJECT_ID":"2025-135BV","EPOCH":"2026-07-22T18:31:43.909536","CLASSIFICATION_TYPE":"U","MEAN_MOTION":15.00558075,"ECCENTRICITY":0.00155817,"INCLINATION":97.7688,"RA_OF_ASC_NODE":319.9724,"ARG_OF_PERICENTER":166.457,"MEAN_ANOMALY":193.7074,"EPHEMERIS_TYPE":0,"NORAD_CAT_ID":65403,"ELEMENT_SET_NO":999,"REV_AT_EPOCH":5397,"BSTAR":0.00060148358,"MEAN_MOTION_DOT":0.00007551,"MEAN_MOTION_DDOT":0},{"OBJECT_NAME":"LEMUR-2-AFFIE-WAUWIE","OBJECT_ID":"2025-248C","EPOCH":"2026-07-22T14:59:24.723744","CLASSIFICATION_TYPE":"U","MEAN_MOTION":15.28478624,"ECCENTRICITY":0.00092974,"INCLINATION":45.3913,"RA_OF_ASC_NODE":282.7928,"ARG_OF_PERICENTER":290.1345,"MEAN_ANOMALY":69.8544,"EPHEMERIS_TYPE":0,"NORAD_CAT_ID":66295,"ELEMENT_SET_NO":999,"REV_AT_EPOCH":4001,"BSTAR":0.00078378098,"MEAN_MOTION_DOT":0.00021917,"MEAN_MOTION_DDOT":0},{"OBJECT_NAME":"OTTER SDM","OBJECT_ID":"2025-276N","EPOCH":"2026-07-22T16:01:17.334336","CLASSIFICATION_TYPE":"U","MEAN_MOTION":15.2011819,"ECCENTRICITY":0.0004856,"INCLINATION":97.4195,"RA_OF_ASC_NODE":276.5607,"ARG_OF_PERICENTER":220.4782,"MEAN_ANOMALY":139.6093,"EPHEMERIS_TYPE":0,"NORAD_CAT_ID":66678,"ELEMENT_SET_NO":999,"REV_AT_EPOCH":3580,"BSTAR":0.00029630356,"MEAN_MOTION_DOT":0.00006338,"MEAN_MOTION_DDOT":0},{"OBJECT_NAME":"LEMUR-2-STAS-GORBUK","OBJECT_ID":"2025-276W","EPOCH":"2026-07-22T03:56:27.941856","CLASSIFICATION_TYPE":"U","MEAN_MOTION":15.1970617,"ECCENTRICITY":0.0004147,"INCLINATION":97.4227,"RA_OF_ASC_NODE":276.1161,"ARG_OF_PERICENTER":216.7749,"MEAN_ANOMALY":143.3202,"EPHEMERIS_TYPE":0,"NORAD_CAT_ID":66686,"ELEMENT_SET_NO":999,"REV_AT_EPOCH":3572,"BSTAR":0.00022883191,"MEAN_MOTION_DOT":0.0000482,"MEAN_MOTION_DDOT":0},{"OBJECT_NAME":"LEMUR-2-TEODOR","OBJECT_ID":"2025-276DG","EPOCH":"2026-07-22T10:31:16.445856","CLASSIFICATION_TYPE":"U","MEAN_MOTION":15.21390266,"ECCENTRICITY":0.00020826,"INCLINATION":97.4133,"RA_OF_ASC_NODE":276.6672,"ARG_OF_PERICENTER":83.4185,"MEAN_ANOMALY":276.7288,"EPHEMERIS_TYPE":0,"NORAD_CAT_ID":66768,"ELEMENT_SET_NO":999,"REV_AT_EPOCH":3580,"BSTAR":0.00024528829,"MEAN_MOTION_DOT":0.00005433,"MEAN_MOTION_DDOT":0},{"OBJECT_NAME":"LEMUR-2-LAILA","OBJECT_ID":"2025-276DQ","EPOCH":"2026-07-22T05:02:08.863584","CLASSIFICATION_TYPE":"U","MEAN_MOTION":15.21615295,"ECCENTRICITY":0.00027925,"INCLINATION":97.4156,"RA_OF_ASC_NODE":276.5851,"ARG_OF_PERICENTER":84.3231,"MEAN_ANOMALY":275.8324,"EPHEMERIS_TYPE":0,"NORAD_CAT_ID":66776,"ELEMENT_SET_NO":999,"REV_AT_EPOCH":3577,"BSTAR":0.00025904595,"MEAN_MOTION_DOT":0.0000578,"MEAN_MOTION_DDOT":0},{"OBJECT_NAME":"LEMUR-2-CELIJO-SB-PK","OBJECT_ID":"2025-276DW","EPOCH":"2026-07-22T15:42:44.776224","CLASSIFICATION_TYPE":"U","MEAN_MOTION":15.00342762,"ECCENTRICITY":0.00065757,"INCLINATION":97.518,"RA_OF_ASC_NODE":273.2602,"ARG_OF_PERICENTER":46.3519,"MEAN_ANOMALY":313.825,"EPHEMERIS_TYPE":0,"NORAD_CAT_ID":66781,"ELEMENT_SET_NO":999,"REV_AT_EPOCH":2794,"BSTAR":0.00049504666,"MEAN_MOTION_DOT":0.00006159,"MEAN_MOTION_DDOT":0},{"OBJECT_NAME":"LEMUR-2-FINNIAN","OBJECT_ID":"2025-276DX","EPOCH":"2026-07-22T21:21:36.847584","CLASSIFICATION_TYPE":"U","MEAN_MOTION":15.00678347,"ECCENTRICITY":0.00069266,"INCLINATION":97.535,"RA_OF_ASC_NODE":273.7744,"ARG_OF_PERICENTER":329.5033,"MEAN_ANOMALY":30.5787,"EPHEMERIS_TYPE":0,"NORAD_CAT_ID":66782,"ELEMENT_SET_NO":999,"REV_AT_EPOCH":2535,"BSTAR":0.00045883079,"MEAN_MOTION_DOT":0.00005754,"MEAN_MOTION_DDOT":0},{"OBJECT_NAME":"LEMUR-2-STARLIGHT","OBJECT_ID":"2025-276DY","EPOCH":"2026-07-22T03:25:54.526944","CLASSIFICATION_TYPE":"U","MEAN_MOTION":14.99416887,"ECCENTRICITY":0.00145123,"INCLINATION":97.5239,"RA_OF_ASC_NODE":272.5886,"ARG_OF_PERICENTER":26.2388,"MEAN_ANOMALY":333.9568,"EPHEMERIS_TYPE":0,"NORAD_CAT_ID":66783,"ELEMENT_SET_NO":999,"REV_AT_EPOCH":3543,"BSTAR":0.00055453521,"MEAN_MOTION_DOT":0.00006752,"MEAN_MOTION_DDOT":0},{"OBJECT_NAME":"LEMUR-2-TARTIFLETTE","OBJECT_ID":"2025-276DZ","EPOCH":"2026-07-22T16:12:30.669408","CLASSIFICATION_TYPE":"U","MEAN_MOTION":14.9940366,"ECCENTRICITY":0.00137498,"INCLINATION":97.524,"RA_OF_ASC_NODE":273.1104,"ARG_OF_PERICENTER":33.4465,"MEAN_ANOMALY":326.7624,"EPHEMERIS_TYPE":0,"NORAD_CAT_ID":66784,"ELEMENT_SET_NO":999,"REV_AT_EPOCH":3551,"BSTAR":0.0005236286,"MEAN_MOTION_DOT":0.00006369,"MEAN_MOTION_DDOT":0},{"OBJECT_NAME":"LEMUR-2-VUKASIN","OBJECT_ID":"2025-276EA","EPOCH":"2026-07-22T21:45:19.280160","CLASSIFICATION_TYPE":"U","MEAN_MOTION":15.0059877,"ECCENTRICITY":0.00018461,"INCLINATION":97.5197,"RA_OF_ASC_NODE":273.7039,"ARG_OF_PERICENTER":24.6131,"MEAN_ANOMALY":335.5181,"EPHEMERIS_TYPE":0,"NORAD_CAT_ID":66785,"ELEMENT_SET_NO":999,"REV_AT_EPOCH":3550,"BSTAR":0.00046787822,"MEAN_MOTION_DOT":0.00005854,"MEAN_MOTION_DDOT":0},{"OBJECT_NAME":"LEMUR-2-HOTSPUR-TOM","OBJECT_ID":"2025-276EB","EPOCH":"2026-07-22T11:16:51.997728","CLASSIFICATION_TYPE":"U","MEAN_MOTION":14.99296959,"ECCENTRICITY":0.00135062,"INCLINATION":97.5215,"RA_OF_ASC_NODE":272.8837,"ARG_OF_PERICENTER":26.0227,"MEAN_ANOMALY":334.1672,"EPHEMERIS_TYPE":0,"NORAD_CAT_ID":66786,"ELEMENT_SET_NO":999,"REV_AT_EPOCH":3541,"BSTAR":0.00051386368,"MEAN_MOTION_DOT":0.00006231,"MEAN_MOTION_DDOT":0}]}
